[{"OBJECT_NAME":"STARLINK-31590","OBJECT_ID":"2024-045W","EPOCH":"2026-03-09T11:14:49.962912","MEAN_MOTION":15.2757136,"ECCENTRICITY":9.918e-5,"INCLINATION":43.0033,"RA_OF_ASC_NODE":94.125,"ARG_OF_PERICENTER":282.3271,"MEAN_ANOMALY":77.747,"EPHEMERIS_TYPE":0,"CLASSIFICATION_TYPE":"U","NORAD_CAT_ID":59198,"ELEMENT_SET_NO":999,"REV_AT_EPOCH":11312,"BSTAR":-1.4205082e-5,"MEAN_MOTION_DOT":-6.53e-6,"MEAN_MOTION_DDOT":0},{"OBJECT_NAME":"FENGYUN 1C DEB","OBJECT_ID":"1999-025BZU","EPOCH":"2026-03-09T17:19:51.665664","MEAN_MOTION":15.28412118,"ECCENTRICITY":0.00188802,"INCLINATION":98.9598,"RA_OF_ASC_NODE":354.2029,"ARG_OF_PERICENTER":82.3682,"MEAN_ANOMALY":277.9697,"EPHEMERIS_TYPE":0,"CLASSIFICATION_TYPE":"U","NORAD_CAT_ID":31614,"ELEMENT_SET_NO":999,"REV_AT_EPOCH":97742,"BSTAR":0.011500831,"MEAN_MOTION_DOT":0.0033373,"MEAN_MOTION_DDOT":0}]
